NORAD_CAT_ID,OBJECT_NAME,OBJECT_TYPE,EPOCH,MEAN_MOTION,ECCENTRICITY,INCLINATION,RA_OF_ASC_NODE,ARG_OF_PERICENTER,MEAN_ANOMALY,BSTAR,MEAN_MOTION_DOT,MEAN_MOTION_DDOT,TLE_LINE0,TLE_LINE1,TLE_LINE2,SEMIMAJOR_AXIS,PERIOD,APOGEE,PERIGEE,DECAYED
52268.0,STARLINK-3746,PAYLOAD,2023-05-22 16:03:26,15.08842451,0.0001054,53.2182,17.1557,97.413,262.6982,0.00018743,2.697e-05,0.0,0 STARLINK-3746,1 52268U 22041H   23142.66906246  .00002697  00000-0  18743-3 0  9993,2 52268  53.2182  17.1557 0001054  97.4130 262.6982 15.08842451 61297,6917.873,95.437,540.467,539.009,0.0
52268.0,STARLINK-3746,PAYLOAD,2023-05-22 19:14:13,15.08848459,0.0001129,53.2182,16.56,103.7332,256.3786,0.00033374,5.029e-05,0.0,0 STARLINK-3746,1 52268U 22041H   23142.80154085  .00005029  00000-0  33374-3 0  9994,2 52268  53.2182  16.5600 0001129 103.7332 256.3786 15.08848459 60090,6917.855,95.437,540.501,538.939,0.0
52268.0,STARLINK-3746,PAYLOAD,2023-05-23 22:15:46,15.08846819,0.000103,53.218,11.5071,95.4178,264.6932,0.0003108,4.663e-05,0.0,0 STARLINK-3746,1 52268U 22041H   23143.92762456  .00004663  00000-0  31080-3 0  9990,2 52268  53.2180  11.5071 0001030  95.4178 264.6932 15.08846819 60263,6917.86,95.437,540.437,539.012,0.0
52268.0,STARLINK-3746,PAYLOAD,2023-05-25 14:00:24,15.08844018,0.0001193,53.2176,4.0757,107.7587,252.3536,0.00014013,1.943e-05,0.0,0 STARLINK-3746,1 52268U 22041H   23145.58362200  .00001943  00000-0  14013-3 0  9992,2 52268  53.2176   4.0757 0001193 107.7587 252.3536 15.08844018 60518,6917.868,95.437,540.558,538.908,0.0
52268.0,STARLINK-3746,PAYLOAD,2023-05-25 18:46:34,15.08841223,0.0001089,53.2173,3.1825,100.9635,259.1479,8.2007e-05,1.018e-05,0.0,0 STARLINK-3746,1 52268U 22041H   23145.78234355  .00001018  00000-0  82007-4 0  9995,2 52268  53.2173   3.1825 0001089 100.9635 259.1479 15.08841223 61768,6917.877,95.437,540.495,538.988,0.0
52268.0,STARLINK-3746,PAYLOAD,2023-05-25 21:57:20,15.08844743,0.0001098,53.2173,2.5876,101.6916,258.42,0.00011423,1.531e-05,0.0,0 STARLINK-3746,1 52268U 22041H   23145.91482148  .00001531  00000-0  11423-3 0  9998,2 52268  53.2173   2.5876 0001098 101.6916 258.4200 15.08844743 60568,6917.866,95.437,540.49,538.971,0.0
52268.0,STARLINK-3746,PAYLOAD,2023-05-26 21:48:08,15.08842958,0.0001099,53.218,358.1263,95.0192,265.0926,2.2205e-05,6.6e-07,0.0,0 STARLINK-3746,1 52268U 22041H   23146.90842680  .00000066  00000-0  22205-4 0  9992,2 52268  53.2180 358.1263 0001099  95.0192 265.0926 15.08842958 60711,6917.871,95.437,540.497,538.976,0.0
52268.0,STARLINK-3746,PAYLOAD,2023-05-27 20:03:32,15.08841535,0.0001132,53.2185,353.9606,100.3476,259.7644,6.8456e-06,-1.79e-06,0.0,0 STARLINK-3746,1 52268U 22041H   23147.83578868 -.00000179  00000-0  68456-5 0  9994,2 52268  53.2185 353.9606 0001132 100.3476 259.7644 15.08841535 60855,6917.876,95.437,540.524,538.958,0.0
52268.0,STARLINK-3746,PAYLOAD,2023-05-27 23:14:18,15.0884258,0.0001132,53.2177,353.3676,93.7879,266.3242,6.4858e-05,7.45e-06,0.0,0 STARLINK-3746,1 52268U 22041H   23147.96826666  .00000745  00000-0  64858-4 0  9999,2 52268  53.2177 353.3676 0001132  93.7879 266.3242 15.08842580 62096,6917.873,95.437,540.521,538.954,0.0
52268.0,STARLINK-3746,PAYLOAD,2023-05-28 19:54:18,15.08848717,0.0001104,53.2175,349.5019,94.0498,266.0621,0.00015815,2.231e-05,0.0,0 STARLINK-3746,1 52268U 22041H   23148.82938098  .00002231  00000-0  15815-3 0  9998,2 52268  53.2175 349.5019 0001104  94.0498 266.0621 15.08848717 61008,6917.854,95.437,540.482,538.955,0.0
52268.0,STARLINK-3746,PAYLOAD,2023-05-28 23:05:04,15.08851662,0.0001131,53.2177,348.9066,95.2979,264.8142,0.00018109,2.596e-05,0.0,0 STARLINK-3746,1 52268U 22041H   23148.96185833  .00002596  00000-0  18109-3 0  9997,2 52268  53.2177 348.9066 0001131  95.2979 264.8142 15.08851662 62246,6917.845,95.437,540.492,538.927,0.0
52268.0,STARLINK-3746,PAYLOAD,2023-05-29 16:34:20,15.08837828,0.0001125,53.2177,345.6344,97.2442,262.8678,7.3023e-05,8.74e-06,0.0,0 STARLINK-3746,1 52268U 22041H   23149.69051053  .00000874  00000-0  73023-4 0  9998,2 52268  53.2177 345.6344 0001125  97.2442 262.8678 15.08837828 62351,6917.887,95.438,540.53,538.974,0.0
52268.0,STARLINK-3746,PAYLOAD,2023-05-29 19:45:06,15.08840559,0.0001041,53.2172,345.042,97.8642,262.2468,6.5639e-05,7.57e-06,0.0,0 STARLINK-3746,1 52268U 22041H   23149.82298934  .00000757  00000-0  65639-4 0  9998,2 52268  53.2172 345.0420 0001041  97.8642 262.2468 15.08840559 61153,6917.879,95.438,540.464,539.024,0.0
52268.0,STARLINK-3746,PAYLOAD,2023-05-29 22:55:52,15.08841041,0.0001045,53.2165,344.4472,98.9677,261.1433,6.2198e-05,7.02e-06,0.0,0 STARLINK-3746,1 52268U 22041H   23149.95546814  .00000702  00000-0  62198-4 0  9992,2 52268  53.2165 344.4472 0001045  98.9677 261.1433 15.08841041 61178,6917.877,95.437,540.465,539.019,0.0
52268.0,STARLINK-3746,PAYLOAD,2023-05-30 19:35:53,15.08844565,0.000101,53.2161,340.582,94.1748,265.936,6.7372e-05,7.85e-06,0.0,0 STARLINK-3746,1 52268U 22041H   23150.81658666  .00000785  00000-0  67372-4 0  9998,2 52268  53.2161 340.5820 0001010  94.1748 265.9360 15.08844565 61307,6917.866,95.437,540.43,539.033,0.0
52268.0,STARLINK-3746,PAYLOAD,2023-05-31 11:29:44,15.08837973,0.0001034,53.2165,337.6097,99.5065,260.6044,0.00011502,1.543e-05,0.0,0 STARLINK-3746,1 52268U 22041H   23151.47899071  .00001543  00000-0  11502-3 0  9994,2 52268  53.2165 337.6097 0001034  99.5065 260.6044 15.08837973 62623,6917.887,95.438,540.467,539.036,0.0
52268.0,STARLINK-3746,PAYLOAD,2023-05-31 19:26:40,15.08842533,0.0001053,53.2166,336.1225,97.4368,262.6744,0.00013301,1.83e-05,0.0,0 STARLINK-3746,1 52268U 22041H   23151.81018873  .00001830  00000-0  13301-3 0  9993,2 52268  53.2166 336.1225 0001053  97.4368 262.6744 15.08842533 61452,6917.873,95.437,540.466,539.009,0.0
52268.0,STARLINK-3746,PAYLOAD,2023-06-01 04:58:59,15.0884301,0.0001072,53.2167,334.3383,97.8411,262.2703,0.00011683,1.572e-05,0.0,0 STARLINK-3746,1 52268U 22041H   23152.20762828  .00001572  00000-0  11683-3 0  9997,2 52268  53.2167 334.3383 0001072  97.8411 262.2703 15.08843010 61511,6917.871,95.437,540.478,538.995,0.0
52268.0,STARLINK-3746,PAYLOAD,2023-06-01 14:31:18,15.0883004,0.0001216,53.2165,332.5541,111.78,248.3321,0.00011127,1.483e-05,0.0,0 STARLINK-3746,1 52268U 22041H   23152.60507499  .00001483  00000-0  11127-3 0  9996,2 52268  53.2165 332.5541 0001216 111.7800 248.3321 15.08830040 61579,6917.911,95.438,540.617,538.935,0.0
52268.0,STARLINK-3746,PAYLOAD,2023-06-02 11:11:19,15.08838375,0.0001098,53.2164,328.6885,94.086,266.0258,6.2294e-05,7.04e-06,0.0,0 STARLINK-3746,1 52268U 22041H   23153.46619273  .00000704  00000-0  62294-4 0  9992,2 52268  53.2164 328.6885 0001098  94.0860 266.0258 15.08838375 61702,6917.885,95.438,540.51,538.991,0.0
52268.0,STARLINK-3746,PAYLOAD,2023-06-02 17:32:51,15.08839228,0.0001041,53.2175,327.4981,92.5744,267.5367,5.1127e-05,5.26e-06,0.0,0 STARLINK-3746,1 52268U 22041H   23153.73115591  .00000526  00000-0  51127-4 0  9991,2 52268  53.2175 327.4981 0001041  92.5744 267.5367 15.08839228 62964,6917.883,95.438,540.468,539.028,0.0
52268.0,STARLINK-3746,PAYLOAD,2023-06-03 11:02:06,15.08834539,9.68e-05,53.2178,324.226,96.9843,263.1259,9.6746e-05,1.252e-05,0.0,0 STARLINK-3746,1 52268U 22041H   23154.45979818  .00001252  00000-0  96746-4 0  9994,2 52268  53.2178 324.2260 0000968  96.9843 263.1259 15.08834539 61856,6917.897,95.438,540.432,539.092,0.0
52268.0,STARLINK-3746,PAYLOAD,2023-06-03 18:59:01,15.08842619,0.0001022,53.2175,322.7396,91.3355,268.7754,0.00010497,1.383e-05,0.0,0 STARLINK-3746,1 52268U 22041H   23154.79099356  .00001383  00000-0  10497-3 0  9994,2 52268  53.2175 322.7396 0001022  91.3355 268.7754 15.08842619 63126,6917.872,95.437,540.444,539.03,0.0
52268.0,STARLINK-3746,PAYLOAD,2023-06-04 10:52:53,15.08834095,7.59e-05,53.2175,319.7659,100.7839,259.3239,7.8106e-05,9.55e-06,0.0,0 STARLINK-3746,1 52268U 22041H   23155.45339965  .00000955  00000-0  78106-4 0  9997,2 52268  53.2175 319.7659 0000759 100.7839 259.3239 15.08834095 63226,6917.898,95.438,540.289,539.238,0.0
52268.0,STARLINK-3746,PAYLOAD,2023-06-04 17:14:25,15.08845549,0.0001022,53.2167,318.5761,93.4016,266.7093,0.00016168,2.287e-05,0.0,0 STARLINK-3746,1 52268U 22041H   23155.71835319  .00002287  00000-0  16168-3 0  9999,2 52268  53.2167 318.5761 0001022  93.4016 266.7093 15.08845549 63267,6917.863,95.437,540.435,539.021,0.0
52268.0,STARLINK-3746,PAYLOAD,2023-06-05 13:54:26,15.08840602,0.0001135,53.2167,314.7123,82.123,277.9891,0.00010311,1.354e-05,0.0,0 STARLINK-3746,1 52268U 22041H   23156.57947698  .00001354  00000-0  10311-3 0  9996,2 52268  53.2167 314.7123 0001135  82.1230 277.9891 15.08840602 62179,6917.879,95.438,540.529,538.958,0.0
52268.0,STARLINK-3746,PAYLOAD,2023-06-05 20:15:59,15.0884553,0.0001123,53.2169,313.5228,79.7483,280.3635,0.00014485,2.019e-05,0.0,0 STARLINK-3746,1 52268U 22041H   23156.84443427  .00002019  00000-0  14485-3 0  9992,2 52268  53.2169 313.5228 0001123  79.7483 280.3635 15.08845530 62217,6917.863,95.437,540.505,538.952,0.0
52268.0,STARLINK-3746,PAYLOAD,2023-06-06 18:31:23,15.08839062,0.0001233,53.2181,309.3612,92.5994,267.514,4.2765e-05,3.93e-06,0.0,0 STARLINK-3746,1 52268U 22041H   23157.77179800  .00000393  00000-0  42765-4 0  9992,2 52268  53.2181 309.3612 0001233  92.5994 267.5140 15.08839062 63574,6917.883,95.438,540.601,538.895,0.0
52268.0,STARLINK-3746,PAYLOAD,2023-06-07 10:25:14,15.08836815,0.0001243,53.2162,306.3839,99.9949,260.1184,5.6568e-05,6.12e-06,0.0,0 STARLINK-3746,1 52268U 22041H   23158.43419918  .00000612  00000-0  56568-4 0  9993,2 52268  53.2162 306.3839 0001243  99.9949 260.1184 15.08836815 62459,6917.89,95.438,540.615,538.895,0.0
52268.0,STARLINK-3746,PAYLOAD,2023-06-07 19:57:33,15.08845706,0.0001113,53.2162,304.6015,83.6092,276.5027,0.00011572,1.555e-05,0.0,0 STARLINK-3746,1 52268U 22041H   23158.83163465  .00001555  00000-0  11572-3 0  9992,2 52268  53.2162 304.6015 0001113  83.6092 276.5027 15.08845706 62514,6917.863,95.437,540.498,538.958,0.0
